DRAGONFLY               
1 65729U 98067XH  26019.16747573  .00543896  12862-3  15203-2 0  9997
2 65729  51.6184 301.6176 0007962 143.4296 216.7256 15.93020939 19081
1998-067XK              
1 65731U 98067XK  26019.16061299  .00155068  00000+0  10084-2 0  9993
2 65731  51.6272 306.1591 0004649 107.8526 252.2980 15.74934573 19022
RSP-03                  
1 65732U 98067XL  26019.24643747  .00271738  00000+0  12624-2 0  9992
2 65732  51.6242 303.6966 0005710 121.8900 238.2658 15.82066294 19076
GHS-01                  
1 65733U 98067XM  26019.13649771  .02101865  47330-2  16912-2 0  9993
2 65733  51.6184 299.1298 0007468 175.9019 184.2060 16.14745493 19126
YOTSUBA-KULOVER         
1 65941U 98067XN  26019.19468632  .00098446  00000+0  95424-3 0  9999
2 65941  51.6288 310.9023 0004304 127.8963 232.2422 15.65565283 15719
BOTAN                   
1 65942U 98067XP  26019.20265850  .00186622  00000+0  13086-2 0  9996
2 65942  51.6262 308.6903 0005018 131.6074 228.5355 15.73080805 15749
E-KAGAKU-1              
1 65943U 98067XQ  26019.19464871  .00097094  00000+0  94250-3 0  9996
2 65943  51.6302 310.9094 0002888 132.1154 228.0087 15.65540383 15716
HRC MONOBLOCK CAMERA    
1 66052U 98067XR  26019.23357276  .00044906  00000+0  61403-3 0  9991
2 66052  51.6308 314.1639 0000947  22.3835 337.7198 15.56974945 14675
HTV-X1                  
1 66174U 25241A   26019.20762778  .00013941  00000+0  25695-3 0  9992
2 66174  51.6336 316.9875 0007809  34.7495 325.4002 15.49401693   519
SZ-21 MODULE            
1 66515U 25246C   26018.77682407  .00028118  00000+0  28387-3 0  9990
2 66515  41.4757 149.7378 0002609 199.7811 160.2929 15.64704861 10243
SHENZHOU-22             
1 66645U 25272A   26019.03903266  .00021178  00000+0  25083-3 0  9991
2 66645  41.4662 149.9978 0010928 313.3598  46.6329 15.60669378267647
SOYUZ-MS 28             
1 66664U 25275A   26019.20762778  .00013941  00000+0  25695-3 0  9993
2 66664  51.6336 316.9875 0007809  34.7495 325.4002 15.49401693  1288
